OBJECT_NAME,OBJECT_ID,EPOCH,MEAN_MOTION,ECCENTRICITY,INCLINATION,RA_OF_ASC_NODE,ARG_OF_PERICENTER,MEAN_ANOMALY,EPHEMERIS_TYPE,CLASSIFICATION_TYPE,NORAD_CAT_ID,ELEMENT_SET_NO,REV_AT_EPOCH,BSTAR,MEAN_MOTION_DOT,MEAN_MOTION_DDOT
BEIDOU-3 IGSO-1,2019-023A,2026-06-16T14:11:00.247776,1.00291370,.0025458,58.6939,37.6556,225.7166,332.2073,0,U,44204,999,720,0,-.221E-5,0
TIANHUI 2-01A,2019-024A,2026-06-15T12:14:46.485600,15.16745187,.00016191,97.4799,170.4687,100.4752,259.6664,0,U,44207,999,10188,.81662736E-4,.1535E-4,0
TIANHUI 2-01B,2019-024C,2026-06-15T12:14:46.591008,15.16745179,.00020774,97.4799,170.4662,88.3626,271.7845,0,U,44209,999,39445,.82466427E-4,.1551E-4,0
BEIDOU-2 G8,2019-027A,2026-06-16T18:50:07.411200,1.00270894,.0010216,1.6567,74.4880,281.8072,335.8279,0,U,44231,999,2607,0,-.251E-5,0
RISAT-2B,2019-028A,2026-06-17T05:14:26.056896,15.01684828,.0004411,36.9981,353.9079,23.3937,336.7006,0,U,44233,999,38783,.21264E-3,.2737E-4,0
COSMOS 2534 [GLONASS-M],2019-030A,2026-06-16T03:36:36.198144,2.13102184,.00133893,64.3685,192.6516,275.0852,148.6554,0,U,44299,999,5490,0,.77E-6,0
YAMAL 601,2019-031A,2026-06-16T18:22:44.828832,1.00270910,.0002342,0.0191,62.0752,26.8709,140.7701,0,U,44307,999,2592,0,.117E-5,0
BUFENG 1A,2019-032A,2026-06-17T03:29:18.476736,15.28294783,.0010266,44.9738,57.0214,252.0698,107.9066,0,U,44310,999,38718,.35543E-3,.9709E-4,0
BUFENG 1B,2019-032B,2026-06-17T00:32:08.576736,15.27754602,.0026238,44.9743,10.9487,324.1010,35.8109,0,U,44311,999,38772,.34044E-3,.9204E-4,0
JILIN-1 GAOFEN 3A,2019-032C,2026-06-17T05:10:20.357760,15.32629445,.0006444,44.9754,356.7806,296.1891,63.8331,0,U,44312,999,38784,.29008E-3,.9023E-4,0
TIANQI-3,2019-032E,2026-06-17T04:05:48.041952,15.38653701,.0008847,45.0017,339.8047,314.9702,45.0468,0,U,44314,999,38807,.39467E-3,.15098E-3,0
WT 1B,2019-032G,2026-06-17T03:13:05.846016,15.27182162,.0009947,44.9725,61.2291,248.2449,111.7375,0,U,44316,999,38707,.31763E-3,.8346E-4,0
RCM-1,2019-033A,2026-06-16T17:34:35.961024,14.92587663,.0001404,97.7600,175.1837,91.4570,268.6810,0,U,44322,999,38201,.17449E-5,-.38E-6,0
RCM-3,2019-033B,2026-06-17T03:46:22.555200,14.92588399,.0001534,97.7598,175.6969,91.2193,268.9202,0,U,44323,999,38209,.13243E-4,.8E-6,0
RCM-2,2019-033C,2026-06-17T04:18:21.246912,14.92588106,.0001425,97.7613,175.6692,90.8290,269.3093,0,U,44324,999,38208,-.11955E-5,-.68E-6,0
AT&T T-16,2019-034A,2026-06-16T15:57:24.126048,1.00268512,.0000804,0.0218,61.0762,214.9067,127.4309,0,U,44333,999,2562,0,-.117E-5,0
EUTELSAT 7C,2019-034B,2026-06-15T06:14:58.667136,1.00272253,.0003062,0.0734,175.5544,250.1525,298.5954,0,U,44334,999,681,0,.52E-6,0
BEIDOU-3 IGSO-2,2019-035A,2026-06-14T14:58:00.763680,1.00267330,.0039904,55.2456,158.8849,216.4592,231.8306,0,U,44337,999,2564,0,-.71E-6,0
PROX-1,2019-036A,2026-06-17T04:35:15.988128,14.90607207,.0005754,23.9926,114.2231,36.9692,323.1203,0,U,44339,999,37347,.99479E-3,.10269E-3,0
NPSAT1,2019-036B,2026-06-16T20:19:16.512096,14.74576836,.0007222,23.9973,219.9806,202.4838,157.5341,0,U,44340,999,37244,.53159E-3,.3869E-4,0
OTB,2019-036C,2026-06-17T04:29:41.355744,14.57210586,.0010935,23.9973,340.3208,5.2595,354.8011,0,U,44341,999,37137,.18697E-3,.1079E-4,0
FORMOSAT 7-3,2019-036E,2026-06-16T17:18:29.272896,15.09796982,.0000311,23.9974,181.7483,254.8807,105.1662,0,U,44343,999,38317,.16843E-3,.3138E-4,0
DSX,2019-036F,2026-06-14T08:02:31.242048,4.54374393,.19672925,42.3307,351.7308,14.6377,350.3681,0,U,44344,999,11566,0,-.44E-6,0
FORMOSAT 7-1,2019-036L,2026-06-16T07:31:24.474144,14.96502381,.00008437,23.9980,38.2834,147.8049,212.2504,0,U,44349,999,38452,.17757215E-3,.2369E-4,0
FORMOSAT 7-4,2019-036M,2026-06-17T03:15:57.343104,14.96497957,.0001131,23.9979,94.8422,174.7178,185.3335,0,U,44350,999,38406,.16393E-3,.2211E-4,0
FORMOSAT 7-2,2019-036N,2026-06-16T15:00:00.002592,14.96496590,.0000756,23.9963,152.6047,151.5374,208.5168,0,U,44351,999,38350,.14714E-3,.2015E-4,0
FORMOSAT 7-6,2019-036Q,2026-06-16T18:11:42.031104,14.96510275,.0001434,23.9992,332.5244,89.3524,270.7141,0,U,44353,999,38175,.17396E-3,.2328E-4,0
FORMOSAT 7-5,2019-036V,2026-06-16T14:26:55.103424,14.96516314,.0000593,23.9976,272.3289,117.3250,242.7311,0,U,44358,999,38226,.16209E-3,.219E-4,0
METEOR-M2 2,2019-038A,2026-06-17T05:52:19.704000,14.24366283,.000208,98.9139,155.5310,47.7432,312.3922,0,U,44387,999,36130,.10605E-3,.199E-5,0
ICEYE-X4,2019-038D,2026-06-17T04:44:58.807104,15.29297215,.0011543,97.8753,201.1105,307.3761,52.6426,0,U,44390,999,38180,.35697E-3,.10084E-3,0
MOMENTUS-X1,2019-038Y,2026-06-17T02:42:26.275968,15.66635042,.0006767,97.6744,213.4901,25.9501,334.2096,0,U,44408,999,38654,.37506E-3,.39285E-3,0
